{
  "norad_id": 68502,
  "name": "TRANSPORTER-16 OBJECT CQ",
  "history": [
    {
      "epoch": "2026-04-13T22:11:44.031552Z",
      "apogee_km": 594.1732150103308,
      "perigee_km": 592.442065877216,
      "latitude_deg": 7.996476356596954e-05,
      "longitude_deg": -111.84998379641046,
      "height_km": 597.2004628612196,
      "semi_major_axis_km": 6971.444640443773,
      "eccentricity": 0.00012416,
      "inclination_deg": 97.7575,
      "raan_deg": 63.1921,
      "arg_perigee_deg": 169.701,
      "mean_anomaly_deg": 190.4235,
      "mean_motion_rev_day": 14.91483961
    }
  ]
}